{
  "type": "FeatureCollection",
  "features": [
    {
      "type": "Feature",
      "properties": {
        "norad_id": 66596,
        "name": "STARLINK-35811",
        "group": "last-30-days",
        "lat": -38.75797437997611,
        "lon": 80.65125025595441,
        "alt_km": 446.99832752524344,
        "timestamp": "2025-12-21T20:41:06.755687+00:00",
        "meta_object_name": "STARLINK-35811",
        "meta_object_id": "2025-270J",
        "meta_epoch": "2025-12-21T11:38:18.879936",
        "meta_mean_motion": 15.40728481,
        "meta_eccentricity": 1.389e-05,
        "meta_inclination": 42.9957,
        "meta_ra_of_asc_node": 142.3269,
        "meta_arg_of_pericenter": 254.846,
        "meta_mean_anomaly": 105.2382,
        "meta_ephemeris_type": 0,
        "meta_classification_type": "U",
        "meta_norad_cat_id": 66596,
        "meta_element_set_no": 999,
        "meta_rev_at_epoch": 580,
        "meta_bstar": 0.00083180508,
        "meta_mean_motion_dot": 0.00034634,
        "meta_mean_motion_ddot": 0,
        "tle_line1": "1 66596U 25270J   25355.48494074  .00034634  00000+0  83181-3 0  9991",
        "tle_line2": "2 66596  42.9957 142.3269 0000138 254.8460 105.2382 15.40728481  5802"
      },
      "geometry": {
        "type": "Point",
        "coordinates": [
          80.65125025595441,
          -38.75797437997611
        ]
      }
    },
    {
      "type": "Feature",
      "properties": {
        "norad_id": 66597,
        "name": "STARLINK-35820",
        "group": "last-30-days",
        "lat": -11.207317935745685,
        "lon": 127.7521892911696,
        "alt_km": 443.78370093040394,
        "timestamp": "2025-12-21T20:41:06.755696+00:00",
        "meta_object_name": "STARLINK-35820",
        "meta_object_id": "2025-270K",
        "meta_epoch": "2025-12-20T12:05:06.576576",
        "meta_mean_motion": 15.40728378,
        "meta_eccentricity": 0.00023281,
        "meta_inclination": 42.9989,
        "meta_ra_of_asc_node": 147.8597,
        "meta_arg_of_pericenter": 279.6537,
        "meta_mean_anomaly": 80.4056,
        "meta_ephemeris_type": 0,
        "meta_classification_type": "U",
        "meta_norad_cat_id": 66597,
        "meta_element_set_no": 999,
        "meta_rev_at_epoch": 565,
        "meta_bstar": 0.0011149945,
        "meta_mean_motion_dot": 0.00046603,
        "meta_mean_motion_ddot": 0,
        "tle_line1": "1 66597U 25270K   25354.50354834  .00046603  00000+0  11150-2 0  9998",
        "tle_line2": "2 66597  42.9989 147.8597 0002328 279.6537  80.4056 15.40728378  5655"
      },
      "geometry": {
        "type": "Point",
        "coordinates": [
          127.7521892911696,
          -11.207317935745685
        ]
      }
    },
    {
      "type": "Feature",
      "properties": {
        "norad_id": 66598,
        "name": "STARLINK-35981",
        "group": "last-30-days",
        "lat": 39.83243801829215,
        "lon": -156.6535788702307,
        "alt_km": 439.1031639602643,
        "timestamp": "2025-12-21T20:41:06.755706+00:00",
        "meta_object_name": "STARLINK-35981",
        "meta_object_id": "2025-270L",
        "meta_epoch": "2025-12-21T00:00:02.000160",
        "meta_mean_motion": 15.40651292,
        "meta_eccentricity": 0.00021845,
        "meta_inclination": 43.0001,
        "meta_ra_of_asc_node": 144.7895,
        "meta_arg_of_pericenter": 267.1368,
        "meta_mean_anomaly": 56.9438,
        "meta_ephemeris_type": 0,
        "meta_classification_type": "U",
        "meta_norad_cat_id": 66598,
        "meta_element_set_no": 999,
        "meta_rev_at_epoch": 556,
        "meta_bstar": 0.00054220677,
        "meta_mean_motion_dot": 0.00022376,
        "meta_mean_motion_ddot": 0,
        "tle_line1": "1 66598U 25270L   25355.00002315  .00022376  00000+0  54221-3 0  9997",
        "tle_line2": "2 66598  43.0001 144.7895 0002184 267.1368  56.9438 15.40651292  5566"
      },
      "geometry": {
        "type": "Point",
        "coordinates": [
          -156.6535788702307,
          39.83243801829215
        ]
      }
    },
    {
      "type": "Feature",
      "properties": {
        "norad_id": 66599,
        "name": "STARLINK-35930",
        "group": "last-30-days",
        "lat": -42.92058382559914,
        "lon": 45.70550261281436,
        "alt_km": 418.55986994076466,
        "timestamp": "2025-12-21T20:41:06.755716+00:00",
        "meta_object_name": "STARLINK-35930",
        "meta_object_id": "2025-270M",
        "meta_epoch": "2025-12-19T04:08:36.625632",
        "meta_mean_motion": 15.50348464,
        "meta_eccentricity": 0.0002903,
        "meta_inclination": 42.9985,
        "meta_ra_of_asc_node": 155.067,
        "meta_arg_of_pericenter": 324.189,
        "meta_mean_anomaly": 35.8775,
        "meta_ephemeris_type": 0,
        "meta_classification_type": "U",
        "meta_norad_cat_id": 66599,
        "meta_element_set_no": 999,
        "meta_rev_at_epoch": 534,
        "meta_bstar": -2.964998e-06,
        "meta_mean_motion_dot": -5.14e-06,
        "meta_mean_motion_ddot": 0,
        "tle_line1": "1 66599U 25270M   25353.17264613 -.00000514  00000+0 -29650-5 0  9997",
        "tle_line2": "2 66599  42.9985 155.0670 0002903 324.1890  35.8775 15.50348464  5346"
      },
      "geometry": {
        "type": "Point",
        "coordinates": [
          45.70550261281436,
          -42.92058382559914
        ]
      }
    },
    {
      "type": "Feature",
      "properties": {
        "norad_id": 66600,
        "name": "STARLINK-35980",
        "group": "last-30-days",
        "lat": 36.2237850621839,
        "lon": -92.11844079644685,
        "alt_km": 439.40208411833373,
        "timestamp": "2025-12-21T20:41:06.755725+00:00",
        "meta_object_name": "STARLINK-35980",
        "meta_object_id": "2025-270N",
        "meta_epoch": "2025-12-21T14:00:01.999872",
        "meta_mean_motion": 15.40687217,
        "meta_eccentricity": 0.00018329,
        "meta_inclination": 43.0001,
        "meta_ra_of_asc_node": 141.3089,
        "meta_arg_of_pericenter": 270.0205,
        "meta_mean_anomaly": 103.1773,
        "meta_ephemeris_type": 0,
        "meta_classification_type": "U",
        "meta_norad_cat_id": 66600,
        "meta_element_set_no": 999,
        "meta_rev_at_epoch": 572,
        "meta_bstar": 0.00016376808,
        "meta_mean_motion_dot": 6.54e-05,
        "meta_mean_motion_ddot": 0,
        "tle_line1": "1 66600U 25270N   25355.58335648  .00006540  00000+0  16377-3 0  9997",
        "tle_line2": "2 66600  43.0001 141.3089 0001832 270.0205 103.1773 15.40687217  5721"
      },
      "geometry": {
        "type": "Point",
        "coordinates": [
          -92.11844079644685,
          36.2237850621839
        ]
      }
    },
    {
      "type": "Feature",
      "properties": {
        "norad_id": 66601,
        "name": "STARLINK-35978",
        "group": "last-30-days",
        "lat": 13.855476314589472,
        "lon": 155.28993243250034,
        "alt_km": 441.73661856300987,
        "timestamp": "2025-12-21T20:41:06.755734+00:00",
        "meta_object_name": "STARLINK-35978",
        "meta_object_id": "2025-270P",
        "meta_epoch": "2025-12-20T19:42:11.790720",
        "meta_mean_motion": 15.40722377,
        "meta_eccentricity": 0.00014939,
        "meta_inclination": 43.0002,
        "meta_ra_of_asc_node": 145.942,
        "meta_arg_of_pericenter": 271.2844,
        "meta_mean_anomaly": 88.7841,
        "meta_ephemeris_type": 0,
        "meta_classification_type": "U",
        "meta_norad_cat_id": 66601,
        "meta_element_set_no": 999,
        "meta_rev_at_epoch": 543,
        "meta_bstar": 0.00099615846,
        "meta_mean_motion_dot": 0.00041566,
        "meta_mean_motion_ddot": 0,
        "tle_line1": "1 66601U 25270P   25354.82096980  .00041566  00000+0  99616-3 0  9991",
        "tle_line2": "2 66601  43.0002 145.9420 0001493 271.2844  88.7841 15.40722377  5436"
      },
      "geometry": {
        "type": "Point",
        "coordinates": [
          155.28993243250034,
          13.855476314589472
        ]
      }
    },
    {
      "type": "Feature",
      "properties": {
        "norad_id": 66602,
        "name": "STARLINK-36050",
        "group": "last-30-days",
        "lat": -33.46443860737823,
        "lon": 94.94122913371493,
        "alt_km": 445.3859422983578,
        "timestamp": "2025-12-21T20:41:06.755744+00:00",
        "meta_object_name": "STARLINK-36050",
        "meta_object_id": "2025-270Q",
        "meta_epoch": "2025-12-20T18:28:11.884800",
        "meta_mean_motion": 15.40736584,
        "meta_eccentricity": 0.00018604,
        "meta_inclination": 43.0006,
        "meta_ra_of_asc_node": 146.4173,
        "meta_arg_of_pericenter": 279.8922,
        "meta_mean_anomaly": 80.1725,
        "meta_ephemeris_type": 0,
        "meta_classification_type": "U",
        "meta_norad_cat_id": 66602,
        "meta_element_set_no": 999,
        "meta_rev_at_epoch": 548,
        "meta_bstar": 0.0010134655,
        "meta_mean_motion_dot": 0.00042319,
        "meta_mean_motion_ddot": 0,
        "tle_line1": "1 66602U 25270Q   25354.76958200  .00042319  00000+0  10135-2 0  9992",
        "tle_line2": "2 66602  43.0006 146.4173 0001860 279.8922  80.1725 15.40736584  5488"
      },
      "geometry": {
        "type": "Point",
        "coordinates": [
          94.94122913371493,
          -33.46443860737823
        ]
      }
    }
  ]
}